ALOS-4 (DAICHI-4)       
1 60182U 24123A   24215.52570864  .00003876  00000+0  52551-3 0  9994
2 60182  97.9221 311.5239 0001534 107.3589 252.7791 14.79477362  4792
